{"type": "FeatureCollection", "features": [ {"type": "Feature", "properties": {"norad_id": 66595, "name": "STARLINK-35711", "group": "last-30-days", "lat": 26.10882940966964, "lon": -86.02247890312408, "alt_km": 440.4105574512132, "timestamp": "2025-12-24T05:51:18.323843+00:00", "meta": {"OBJECT_NAME": "STARLINK-35711", "OBJECT_ID": "2025-270H", "EPOCH": "2025-12-24T00:00:00.999648", "MEAN_MOTION": 15.40685054, "ECCENTRICITY": 0.00016005, "INCLINATION": 43.0008, "RA_OF_ASC_NODE": 127.1132, "ARG_OF_PERICENTER": 253.7777, "MEAN_ANOMALY": 331.3003, "EPHEMERIS_TYPE": 0, "CLASSIFICATION_TYPE": "U", "NORAD_CAT_ID": 66595, "ELEMENT_SET_NO": 999, "REV_AT_EPOCH": 604, "BSTAR": 0.00012195063, "MEAN_MOTION_DOT": 4.791e-05, "MEAN_MOTION_DDOT": 0}, "tle": {"line1": "1 66595U 25270H   25358.00001157  .00004791  00000+0  12195-3 0  9995", "line2": "2 66595  43.0008 127.1132 0001600 253.7777 331.3003 15.40685054  6041"}}, "geometry": {"type": "Point", "coordinates": [-86.02247890312408, 26.10882940966964]}}, {"type": "Feature", "properties": {"norad_id": 66596, "name": "STARLINK-35811", "group": "last-30-days", "lat": -14.795417707317656, "lon": -37.10581110510961, "alt_km": 445.56349631318335, "timestamp": "2025-12-24T05:51:18.323853+00:00", "meta": {"OBJECT_NAME": "STARLINK-35811", "OBJECT_ID": "2025-270J", "EPOCH": "2025-12-22T18:45:23.391072", "MEAN_MOTION": 15.40753898, "ECCENTRICITY": 0.00011739, "INCLINATION": 42.9952, "RA_OF_ASC_NODE": 134.8575, "ARG_OF_PERICENTER": 40.5321, "MEAN_ANOMALY": 319.5623, "EPHEMERIS_TYPE": 0, "CLASSIFICATION_TYPE": "U", "NORAD_CAT_ID": 66596, "ELEMENT_SET_NO": 999, "REV_AT_EPOCH": 600, "BSTAR": 0.0013359196, "MEAN_MOTION_DOT": 0.00056012, "MEAN_MOTION_DDOT": 0}, "tle": {"line1": "1 66596U 25270J   25356.78152073  .00056012  00000+0  13359-2 0  9998", "line2": "2 66596  42.9952 134.8575 0001173  40.5321 319.5623 15.40753898  6000"}}, "geometry": {"type": "Point", "coordinates": [-37.10581110510961, -14.795417707317656]}}, {"type": "Feature", "properties": {"norad_id": 66597, "name": "STARLINK-35820", "group": "last-30-days", "lat": -40.159214517197654, "lon": 11.19827015634367, "alt_km": 445.7188702611429, "timestamp": "2025-12-24T05:51:18.323864+00:00", "meta": {"OBJECT_NAME": "STARLINK-35820", "OBJECT_ID": "2025-270K", "EPOCH": "2025-12-23T17:52:46.034400", "MEAN_MOTION": 15.40704393, "ECCENTRICITY": 0.00020529, "INCLINATION": 43.0023, "RA_OF_ASC_NODE": 129.186, "ARG_OF_PERICENTER": 259.8005, "MEAN_ANOMALY": 100.262, "EPHEMERIS_TYPE": 0, "CLASSIFICATION_TYPE": "U", "NORAD_CAT_ID": 66597, "ELEMENT_SET_NO": 999, "REV_AT_EPOCH": 615, "BSTAR": 0.0016399731, "MEAN_MOTION_DOT": 0.00068834, "MEAN_MOTION_DDOT": 0}, "tle": {"line1": "1 66597U 25270K   25357.74497725  .00068834  00000+0  16400-2 0  9997", "line2": "2 66597  43.0023 129.1860 0002052 259.8005 100.2620 15.40704393  6151"}}, "geometry": {"type": "Point", "coordinates": [11.19827015634367, -40.159214517197654]}}, {"type": "Feature", "properties": {"norad_id": 66598, "name": "STARLINK-35981", "group": "last-30-days", "lat": -14.732296638465444, "lon": 109.7107828662683, "alt_km": 444.20667476442304, "timestamp": "2025-12-24T05:51:18.323874+00:00", "meta": {"OBJECT_NAME": "STARLINK-35981", "OBJECT_ID": "2025-270L", "EPOCH": "2025-12-23T19:03:32.469120", "MEAN_MOTION": 15.40748442, "ECCENTRICITY": 0.0002454, "INCLINATION": 43.0028, "RA_OF_ASC_NODE": 128.6923, "ARG_OF_PERICENTER": 283.9609, "MEAN_ANOMALY": 76.0975, "EPHEMERIS_TYPE": 0, "CLASSIFICATION_TYPE": "U", "NORAD_CAT_ID": 66598, "ELEMENT_SET_NO": 999, "REV_AT_EPOCH": 590, "BSTAR": 0.0010281449, "MEAN_MOTION_DOT": 0.00042958, "MEAN_MOTION_DDOT": 0}, "tle": {"line1": "1 66598U 25270L   25357.79412580  .00042958  00000+0  10281-2 0  9999", "line2": "2 66598  43.0028 128.6923 0002454 283.9609  76.0975 15.40748442  5903"}}, "geometry": {"type": "Point", "coordinates": [109.7107828662683, -14.732296638465444]}}, {"type": "Feature", "properties": {"norad_id": 66599, "name": "STARLINK-35930", "group": "last-30-days", "lat": 38.19616651483226, "lon": -111.83324375594184, "alt_km": 438.90791402852756, "timestamp": "2025-12-24T05:51:18.323887+00:00", "meta": {"OBJECT_NAME": "STARLINK-35930", "OBJECT_ID": "2025-270M", "EPOCH": "2025-12-24T00:00:00.999648", "MEAN_MOTION": 15.40696625, "ECCENTRICITY": 0.00014297, "INCLINATION": 43.0006, "RA_OF_ASC_NODE": 127.1737, "ARG_OF_PERICENTER": 280.6587, "MEAN_ANOMALY": 279.5318, "EPHEMERIS_TYPE": 0, "CLASSIFICATION_TYPE": "U", "NORAD_CAT_ID": 66599, "ELEMENT_SET_NO": 999, "REV_AT_EPOCH": 611, "BSTAR": 0.00021426294, "MEAN_MOTION_DOT": 8.656e-05, "MEAN_MOTION_DDOT": 0}, "tle": {"line1": "1 66599U 25270M   25358.00001157  .00008656  00000+0  21426-3 0  9990", "line2": "2 66599  43.0006 127.1737 0001429 280.6587 279.5318 15.40696625  6117"}}, "geometry": {"type": "Point", "coordinates": [-111.83324375594184, 38.19616651483226]}}, {"type": "Feature", "properties": {"norad_id": 66600, "name": "STARLINK-35980", "group": "last-30-days", "lat": 18.547648702277392, "lon": 147.08101069505352, "alt_km": 441.40188481802124, "timestamp": "2025-12-24T05:51:18.323897+00:00", "meta": {"OBJECT_NAME": "STARLINK-35980", "OBJECT_ID": "2025-270N", "EPOCH": "2025-12-23T20:23:59.567136", "MEAN_MOTION": 15.40726369, "ECCENTRICITY": 0.00017006, "INCLINATION": 43.0003, "RA_OF_ASC_NODE": 128.2485, "ARG_OF_PERICENTER": 271.9828, "MEAN_ANOMALY": 88.0833, "EPHEMERIS_TYPE": 0, "CLASSIFICATION_TYPE": "U", "NORAD_CAT_ID": 66600, "ELEMENT_SET_NO": 999, "REV_AT_EPOCH": 596, "BSTAR": 0.00092613932, "MEAN_MOTION_DOT": 0.00038614, "MEAN_MOTION_DDOT": 0}, "tle": {"line1": "1 66600U 25270N   25357.84999499  .00038614  00000+0  92614-3 0  9993", "line2": "2 66600  43.0003 128.2485 0001700 271.9828  88.0833 15.40726369  5968"}}, "geometry": {"type": "Point", "coordinates": [147.08101069505352, 18.547648702277392]}}, {"type": "Feature", "properties": {"norad_id": 66601, "name": "STARLINK-35978", "group": "last-30-days", "lat": -40.27021516091965, "lon": 60.834487858862, "alt_km": 447.0801298195656, "timestamp": "2025-12-24T05:51:18.323908+00:00", "meta": {"OBJECT_NAME": "STARLINK-35978", "OBJECT_ID": "2025-270P", "EPOCH": "2025-12-22T16:49:26.256576", "MEAN_MOTION": 15.40724614, "ECCENTRICITY": 3.635e-05, "INCLINATION": 43.0011, "RA_OF_ASC_NODE": 135.1079, "ARG_OF_PERICENTER": 356.863, "MEAN_ANOMALY": 3.2224, "EPHEMERIS_TYPE": 0, "CLASSIFICATION_TYPE": "U", "NORAD_CAT_ID": 66601, "ELEMENT_SET_NO": 999, "REV_AT_EPOCH": 572, "BSTAR": 0.00026821225, "MEAN_MOTION_DOT": 0.00010926, "MEAN_MOTION_DDOT": 0}, "tle": {"line1": "1 66601U 25270P   25356.70099834  .00010926  00000+0  26821-3 0  9995", "line2": "2 66601  43.0011 135.1079 0000363 356.8630   3.2224 15.40724614  5720"}}, "geometry": {"type": "Point", "coordinates": [60.834487858862, -40.27021516091965]}}, {"type": "Feature", "properties": {"norad_id": 66602, "name": "STARLINK-36050", "group": "last-30-days", "lat": -22.28082213157632, "lon": -27.518043717905197, "alt_km": 445.3392951886053, "timestamp": "2025-12-24T05:51:18.323918+00:00", "meta": {"OBJECT_NAME": "STARLINK-36050", "OBJECT_ID": "2025-270Q", "EPOCH": "2025-12-23T16:29:05.797824", "MEAN_MOTION": 15.40723382, "ECCENTRICITY": 0.00020691, "INCLINATION": 43.0027, "RA_OF_ASC_NODE": 129.6108, "ARG_OF_PERICENTER": 272.9257, "MEAN_ANOMALY": 87.1362, "EPHEMERIS_TYPE": 0, "CLASSIFICATION_TYPE": "U", "NORAD_CAT_ID": 66602, "ELEMENT_SET_NO": 999, "REV_AT_EPOCH": 593, "BSTAR": 0.00099833856, "MEAN_MOTION_DOT": 0.00041661, "MEAN_MOTION_DDOT": 0}, "tle": {"line1": "1 66602U 25270Q   25357.68687266  .00041661  00000+0  99834-3 0  9990", "line2": "2 66602  43.0027 129.6108 0002069 272.9257  87.1362 15.40723382  5935"}}, "geometry": {"type": "Point", "coordinates": [-27.518043717905197, -22.28082213157632]}}, {"type": "Feature", "properties": {"norad_id": 66603, "name": "STARLINK-36048", "group": "last-30-days", "lat": -22.6305325639956, "lon": 99.54409838243838, "alt_km": 445.83124340647464, "timestamp": "2025-12-24T05:51:18.323928+00:00", "meta": {"OBJECT_NAME": "STARLINK-36048", "OBJECT_ID": "2025-270R", "EPOCH": "2025-12-23T16:00:04.310784", "MEAN_MOTION": 15.40725788, "ECCENTRICITY": 6.938e-05, "INCLINATION": 42.9946, "RA_OF_ASC_NODE": 129.4525, "ARG_OF_PERICENTER": 249.5933, "MEAN_ANOMALY": 110.4849, "EPHEMERIS_TYPE": 0, "CLASSIFICATION_TYPE": "U", "NORAD_CAT_ID": 66603, "ELEMENT_SET_NO": 999, "REV_AT_EPOCH": 593, "BSTAR": 0.0011653172, "MEAN_MOTION_DOT": 0.00048728, "MEAN_MOTION_DDOT": 0}, "tle": {"line1": "1 66603U 25270R   25357.66671656  .00048728  00000+0  11653-2 0  9998", "line2": "2 66603  42.9946 129.4525 0000693 249.5933 110.4849 15.40725788  5939"}}, "geometry": {"type": "Point", "coordinates": [99.54409838243838, -22.6305325639956]}}, {"type": "Feature", "properties": {"norad_id": 66604, "name": "STARLINK-35977", "group": "last-30-days", "lat": -6.442382438035766, "lon": 119.10802207998687, "alt_km": 444.1502632470083, "timestamp": "2025-12-24T05:51:18.323940+00:00", "meta": {"OBJECT_NAME": "STARLINK-35977", "OBJECT_ID": "2025-270S", "EPOCH": "2025-12-23T19:00:18.963360", "MEAN_MOTION": 15.40738796, "ECCENTRICITY": 0.0002073, "INCLINATION": 43.0011, "RA_OF_ASC_NODE": 128.6736, "ARG_OF_PERICENTER": 266.5082, "MEAN_ANOMALY": 93.5537, "EPHEMERIS_TYPE": 0, "CLASSIFICATION_TYPE": "U", "NORAD_CAT_ID": 66604, "ELEMENT_SET_NO": 999, "REV_AT_EPOCH": 605, "BSTAR": 0.0011739626, "MEAN_MOTION_DOT": 0.00049117, "MEAN_MOTION_DDOT": 0}, "tle": {"line1": "1 66604U 25270S   25357.79188615  .00049117  00000+0  11740-2 0  9991", "line2": "2 66604  43.0011 128.6736 0002073 266.5082  93.5537 15.40738796  6050"}}, "geometry": {"type": "Point", "coordinates": [119.10802207998687, -6.442382438035766]}}]}